ONEWEB-0205             
1 48226U 21031S   24257.16035648 -.00000090  00000+0 -27847-3 0  9993
2 48226  87.8942  57.3746 0001897  90.4146 269.7201 13.14499939163934
ONEWEB-0206             
1 48227U 21031T   24257.51399581  .00000300  00000+0  77449-3 0  9997
2 48227  87.8939  57.2913 0001914  87.0700 273.0649 13.14500128163931
ONEWEB-0182             
1 48228U 21031U   24257.50921827  .00000239  00000+0  60982-3 0  9996
2 48228  87.8943  57.3232 0001632  88.8181 271.3136 13.14498696164143
ONEWEB-0186             
1 48229U 21031V   24257.52033849  .00000236  00000+0  60124-3 0  9992
2 48229  87.8944  57.2842 0001797  94.7434 265.3901 13.14500235164090
ONEWEB-0181             
1 48230U 21031W   24257.19367160 -.00000120  00000+0 -35930-3 0  9994
2 48230  87.8933  57.4191 0001830  96.4930 263.6408 13.14501514163900
ONEWEB-0188             
1 48231U 21031X   24257.53620537  .00000064  00000+0  13890-3 0  9999
2 48231  87.8944  57.3458 0001762  91.7763 268.3568 13.14503218163849
ONEWEB-0220             
1 48232U 21031Y   24256.89078424  .00000191  00000+0  48049-3 0  9995
2 48232  87.8933  57.4340 0002025  86.6570 273.4792 13.14500986164027
ONEWEB-0165             
1 48233U 21031Z   24257.14767596  .00000100  00000+0  23456-3 0  9995
2 48233  87.8944  57.4054 0001874  92.7100 267.4244 13.14499462164010
